{"type": "FeatureCollection", "features": [ {"type": "Feature", "properties": {"norad_id": 66583, "name": "STARLINK-35941", "group": "last-30-days", "lat": -29.241591452422696, "lon": 3.5414770867705236, "alt_km": 406.28603906843455, "timestamp": "2025-12-08T08:58:59.557508+00:00", "meta": {"OBJECT_NAME": "STARLINK-35941", "OBJECT_ID": "2025-268AC", "EPOCH": "2025-12-07T22:00:03.000096", "MEAN_MOTION": 15.56232082, "ECCENTRICITY": 0.00013328, "INCLINATION": 43.0002, "RA_OF_ASC_NODE": 149.312, "ARG_OF_PERICENTER": 282.8783, "MEAN_ANOMALY": 257.7187, "EPHEMERIS_TYPE": 0, "CLASSIFICATION_TYPE": "U", "NORAD_CAT_ID": 66583, "ELEMENT_SET_NO": 999, "REV_AT_EPOCH": 389, "BSTAR": -0.030686965, "MEAN_MOTION_DOT": -0.01945489, "MEAN_MOTION_DDOT": 0}, "tle": {"line1": "1 66583U 25268AC  25341.91670139 -.01945489  00000+0 -30687-1 0  9998", "line2": "2 66583  43.0002 149.3120 0001332 282.8783 257.7187 15.56232082  3897"}}, "geometry": {"type": "Point", "coordinates": [3.5414770867705236, -29.241591452422696]}}, {"type": "Feature", "properties": {"norad_id": 66584, "name": "STARLINK-35939", "group": "last-30-days", "lat": -30.27426287747836, "lon": 5.399687328893234, "alt_km": 406.3192715334708, "timestamp": "2025-12-08T08:58:59.557518+00:00", "meta": {"OBJECT_NAME": "STARLINK-35939", "OBJECT_ID": "2025-268AD", "EPOCH": "2025-12-07T22:00:03.000096", "MEAN_MOTION": 15.56235136, "ECCENTRICITY": 0.00011895, "INCLINATION": 43.0001, "RA_OF_ASC_NODE": 149.3075, "ARG_OF_PERICENTER": 279.9017, "MEAN_ANOMALY": 262.6128, "EPHEMERIS_TYPE": 0, "CLASSIFICATION_TYPE": "U", "NORAD_CAT_ID": 66584, "ELEMENT_SET_NO": 999, "REV_AT_EPOCH": 389, "BSTAR": -0.030764288, "MEAN_MOTION_DOT": -0.01949894, "MEAN_MOTION_DDOT": 0}, "tle": {"line1": "1 66584U 25268AD  25341.91670139 -.01949894  00000+0 -30764-1 0  9999", "line2": "2 66584  43.0001 149.3075 0001189 279.9017 262.6128 15.56235136  3896"}}, "geometry": {"type": "Point", "coordinates": [5.399687328893234, -30.27426287747836]}}, {"type": "Feature", "properties": {"norad_id": 66585, "name": "STARLINK-35963", "group": "last-30-days", "lat": -31.275447070681224, "lon": 7.288551815313425, "alt_km": 406.2294893764956, "timestamp": "2025-12-08T08:58:59.557529+00:00", "meta": {"OBJECT_NAME": "STARLINK-35963", "OBJECT_ID": "2025-268AE", "EPOCH": "2025-12-07T22:00:03.000096", "MEAN_MOTION": 15.5624246, "ECCENTRICITY": 0.0001426, "INCLINATION": 43, "RA_OF_ASC_NODE": 149.3034, "ARG_OF_PERICENTER": 277.6089, "MEAN_ANOMALY": 266.8191, "EPHEMERIS_TYPE": 0, "CLASSIFICATION_TYPE": "U", "NORAD_CAT_ID": 66585, "ELEMENT_SET_NO": 999, "REV_AT_EPOCH": 389, "BSTAR": -0.030990647, "MEAN_MOTION_DOT": -0.01963109, "MEAN_MOTION_DDOT": 0}, "tle": {"line1": "1 66585U 25268AE  25341.91670139 -.01963109  00000+0 -30991-1 0  9997", "line2": "2 66585  43.0000 149.3034 0001426 277.6089 266.8191 15.56242460  3893"}}, "geometry": {"type": "Point", "coordinates": [7.288551815313425, -31.275447070681224]}}, {"type": "Feature", "properties": {"norad_id": 66586, "name": "TJS-21", "group": "last-30-days", "lat": 58.435238612748364, "lon": -142.0466139995246, "alt_km": 34370.65315428141, "timestamp": "2025-12-08T08:58:59.557541+00:00", "meta": {"OBJECT_NAME": "TJS-21", "OBJECT_ID": "2025-269A", "EPOCH": "2025-12-06T17:47:41.602272", "MEAN_MOTION": 2.00560491, "ECCENTRICITY": 0.68052367, "INCLINATION": 63.2668, "RA_OF_ASC_NODE": 162.9832, "ARG_OF_PERICENTER": 269.7989, "MEAN_ANOMALY": 18.6583, "EPHEMERIS_TYPE": 0, "CLASSIFICATION_TYPE": "U", "NORAD_CAT_ID": 66586, "ELEMENT_SET_NO": 999, "REV_AT_EPOCH": 32, "BSTAR": -0.014744059, "MEAN_MOTION_DOT": 1.105e-05, "MEAN_MOTION_DDOT": 0}, "tle": {"line1": "1 66586U 25269A   25340.74145373  .00001105  00000+0 -14744-1 0  9991", "line2": "2 66586  63.2668 162.9832 6805236 269.7989  18.6583  2.00560491   328"}}, "geometry": {"type": "Point", "coordinates": [-142.0466139995246, 58.435238612748364]}}, {"type": "Feature", "properties": {"norad_id": 66587, "name": "CZ-3B R/B", "group": "last-30-days", "lat": 8.660541288664657, "lon": 177.5922738061221, "alt_km": 22396.343937820762, "timestamp": "2025-12-08T08:58:59.557555+00:00", "meta": {"OBJECT_NAME": "CZ-3B R/B", "OBJECT_ID": "2025-269B", "EPOCH": "2025-12-06T20:56:55.417632", "MEAN_MOTION": 2.02680311, "ECCENTRICITY": 0.75198907, "INCLINATION": 51.3598, "RA_OF_ASC_NODE": 171.0029, "ARG_OF_PERICENTER": 227.6683, "MEAN_ANOMALY": 38.3691, "EPHEMERIS_TYPE": 0, "CLASSIFICATION_TYPE": "U", "NORAD_CAT_ID": 66587, "ELEMENT_SET_NO": 999, "REV_AT_EPOCH": 33, "BSTAR": 0.0015659791, "MEAN_MOTION_DOT": 0.00053807, "MEAN_MOTION_DDOT": -4.99023e-07}, "tle": {"line1": "1 66587U 25269B   25340.87286363  .00053807 -49902-6  15660-2 0  9997", "line2": "2 66587  51.3598 171.0029 7519890 227.6683  38.3691  2.02680311   337"}}, "geometry": {"type": "Point", "coordinates": [177.5922738061221, 8.660541288664657]}}, {"type": "Feature", "properties": {"norad_id": 66588, "name": "STARLINK-36076", "group": "last-30-days", "lat": 38.75522600011732, "lon": -82.14097652415975, "alt_km": 380.2337947929227, "timestamp": "2025-12-08T08:58:59.557569+00:00", "meta": {"OBJECT_NAME": "STARLINK-36076", "OBJECT_ID": "2025-270A", "EPOCH": "2025-12-07T22:00:03.000096", "MEAN_MOTION": 15.62823982, "ECCENTRICITY": 0.00015902, "INCLINATION": 42.9987, "RA_OF_ASC_NODE": 221.0976, "ARG_OF_PERICENTER": 267.9986, "MEAN_ANOMALY": 102.7222, "EPHEMERIS_TYPE": 0, "CLASSIFICATION_TYPE": "U", "NORAD_CAT_ID": 66588, "ELEMENT_SET_NO": 999, "REV_AT_EPOCH": 362, "BSTAR": -0.024522884, "MEAN_MOTION_DOT": -0.01997837, "MEAN_MOTION_DDOT": 0}, "tle": {"line1": "1 66588U 25270A   25341.91670139 -.01997837  00000+0 -24523-1 0  9992", "line2": "2 66588  42.9987 221.0976 0001590 267.9986 102.7222 15.62823982  3626"}}, "geometry": {"type": "Point", "coordinates": [-82.14097652415975, 38.75522600011732]}}, {"type": "Feature", "properties": {"norad_id": 66589, "name": "STARLINK-35447", "group": "last-30-days", "lat": 39.99057920359416, "lon": -77.45080529681344, "alt_km": 380.0788208027543, "timestamp": "2025-12-08T08:58:59.557579+00:00", "meta": {"OBJECT_NAME": "STARLINK-35447", "OBJECT_ID": "2025-270B", "EPOCH": "2025-12-07T22:00:03.000096", "MEAN_MOTION": 15.62827101, "ECCENTRICITY": 0.00015686, "INCLINATION": 42.9991, "RA_OF_ASC_NODE": 221.0873, "ARG_OF_PERICENTER": 266.2138, "MEAN_ANOMALY": 108.3394, "EPHEMERIS_TYPE": 0, "CLASSIFICATION_TYPE": "U", "NORAD_CAT_ID": 66589, "ELEMENT_SET_NO": 999, "REV_AT_EPOCH": 373, "BSTAR": -0.024564898, "MEAN_MOTION_DOT": -0.02001038, "MEAN_MOTION_DDOT": 0}, "tle": {"line1": "1 66589U 25270B   25341.91670139 -.02001038  00000+0 -24565-1 0  9999", "line2": "2 66589  42.9991 221.0873 0001568 266.2138 108.3394 15.62827101  3735"}}, "geometry": {"type": "Point", "coordinates": [-77.45080529681344, 39.99057920359416]}}, {"type": "Feature", "properties": {"norad_id": 66590, "name": "STARLINK-35429", "group": "last-30-days", "lat": 39.39651290912018, "lon": -79.81753853316465, "alt_km": 380.14291310085446, "timestamp": "2025-12-08T08:58:59.557589+00:00", "meta": {"OBJECT_NAME": "STARLINK-35429", "OBJECT_ID": "2025-270C", "EPOCH": "2025-12-07T22:00:03.000096", "MEAN_MOTION": 15.62827049, "ECCENTRICITY": 0.00015462, "INCLINATION": 42.999, "RA_OF_ASC_NODE": 221.0921, "ARG_OF_PERICENTER": 265.9131, "MEAN_ANOMALY": 106.7226, "EPHEMERIS_TYPE": 0, "CLASSIFICATION_TYPE": "U", "NORAD_CAT_ID": 66590, "ELEMENT_SET_NO": 999, "REV_AT_EPOCH": 373, "BSTAR": -0.024555794, "MEAN_MOTION_DOT": -0.02000367, "MEAN_MOTION_DDOT": 0}, "tle": {"line1": "1 66590U 25270C   25341.91670139 -.02000367  00000+0 -24556-1 0  9995", "line2": "2 66590  42.9990 221.0921 0001546 265.9131 106.7226 15.62827049  3732"}}, "geometry": {"type": "Point", "coordinates": [-79.81753853316465, 39.39651290912018]}}, {"type": "Feature", "properties": {"norad_id": 66591, "name": "STARLINK-36058", "group": "last-30-days", "lat": 40.53588455488943, "lon": -75.04171610486718, "alt_km": 379.99007458348296, "timestamp": "2025-12-08T08:58:59.557601+00:00", "meta": {"OBJECT_NAME": "STARLINK-36058", "OBJECT_ID": "2025-270D", "EPOCH": "2025-12-07T22:00:03.000096", "MEAN_MOTION": 15.62825989, "ECCENTRICITY": 0.00015882, "INCLINATION": 42.9991, "RA_OF_ASC_NODE": 221.0827, "ARG_OF_PERICENTER": 269.6548, "MEAN_ANOMALY": 106.8164, "EPHEMERIS_TYPE": 0, "CLASSIFICATION_TYPE": "U", "NORAD_CAT_ID": 66591, "ELEMENT_SET_NO": 999, "REV_AT_EPOCH": 362, "BSTAR": -0.024548017, "MEAN_MOTION_DOT": -0.0199977, "MEAN_MOTION_DDOT": 0}, "tle": {"line1": "1 66591U 25270D   25341.91670139 -.01999770  00000+0 -24548-1 0  9991", "line2": "2 66591  42.9991 221.0827 0001588 269.6548 106.8164 15.62825989  3629"}}, "geometry": {"type": "Point", "coordinates": [-75.04171610486718, 40.53588455488943]}}, {"type": "Feature", "properties": {"norad_id": 66592, "name": "STARLINK-36066", "group": "last-30-days", "lat": 41.0293809018694, "lon": -72.60018903102214, "alt_km": 379.90690839627405, "timestamp": "2025-12-08T08:58:59.557611+00:00", "meta": {"OBJECT_NAME": "STARLINK-36066", "OBJECT_ID": "2025-270E", "EPOCH": "2025-12-07T22:00:03.000096", "MEAN_MOTION": 15.62828287, "ECCENTRICITY": 0.00015176, "INCLINATION": 42.9993, "RA_OF_ASC_NODE": 221.078, "ARG_OF_PERICENTER": 266.6354, "MEAN_ANOMALY": 111.751, "EPHEMERIS_TYPE": 0, "CLASSIFICATION_TYPE": "U", "NORAD_CAT_ID": 66592, "ELEMENT_SET_NO": 999, "REV_AT_EPOCH": 352, "BSTAR": -0.024582527, "MEAN_MOTION_DOT": -0.02002341, "MEAN_MOTION_DDOT": 0}, "tle": {"line1": "1 66592U 25270E   25341.91670139 -.02002341  00000+0 -24583-1 0  9991", "line2": "2 66592  42.9993 221.0780 0001517 266.6354 111.7510 15.62828287  3527"}}, "geometry": {"type": "Point", "coordinates": [-72.60018903102214, 41.0293809018694]}}]}